start=new Date('2021-10-30T00:00:00.000Z').valueOf();
sats=[{"SITE":"AFETR","EPHEMERIS_TYPE":"0","TLE_LINE2":"2 47775  53.0550 168.0584 0001840  78.9007 281.2189 15.06395348 37708","MEAN_MOTION_DOT":"0.00000137","ARG_OF_PERICENTER":"78.9007","COUNTRY_CODE":"US","TLE_LINE1":"1 47775U 21017BF  21302.76481685  .00000137  00000-0  28114-4 0  9995","SEMIMAJOR_AXIS":"6925.363","ELEMENT_SET_NO":"999","REV_AT_EPOCH":"3770","CLASSIFICATION_TYPE":"U","EPOCH":"2021-10-29T18:21:20.175840","RA_OF_ASC_NODE":"168.0584","BSTAR":"0.00002811400000","PERIOD":"95.592","DECAY_DATE":null,"REF_FRAME":"TEME","CENTER_NAME":"EARTH","NORAD_CAT_ID":"47775","RCS_SIZE":"LARGE","MEAN_MOTION_DDOT":"0.0000000000000","TIME_SYSTEM":"UTC","MEAN_ELEMENT_THEORY":"SGP4","FILE":"3191844","ECCENTRICITY":"0.00018400","OBJECT_NAME":"STARLINK-2198","INCLINATION":"53.0550","APOAPSIS":"548.502","LAUNCH_DATE":"2021-03-04","OBJECT_ID":"2021-017BF","MEAN_ANOMALY":"281.2189","MEAN_MOTION":"15.06395348","GP_ID":"188467593","PERIAPSIS":"545.954","OBJECT_TYPE":"PAYLOAD"},{"MEAN_ELEMENT_THEORY":"SGP4","FILE":"3191412","MEAN_MOTION_DDOT":"0.0000000000000","TIME_SYSTEM":"UTC","INCLINATION":"53.0557","APOAPSIS":"548.480","OBJECT_NAME":"STARLINK-2209","ECCENTRICITY":"0.00017820","MEAN_MOTION":"15.06389531","OBJECT_TYPE":"PAYLOAD","PERIAPSIS":"546.012","GP_ID":"188435096","MEAN_ANOMALY":"280.1311","LAUNCH_DATE":"2021-03-04","OBJECT_ID":"2021-017BG","MEAN_MOTION_DOT":"-0.00000138","ARG_OF_PERICENTER":"79.9879","TLE_LINE1":"1 47776U 21017BG  21302.32711485 -.00000138  00000-0  96098-5 0  9991","COUNTRY_CODE":"US","SITE":"AFETR","EPHEMERIS_TYPE":"0","TLE_LINE2":"2 47776  53.0557 160.0159 0001782  79.9879 280.1311 15.06389531 37745","RA_OF_ASC_NODE":"160.0159","EPOCH":"2021-10-29T07:51:02.723040","CLASSIFICATION_TYPE":"U","ELEMENT_SET_NO":"999","SEMIMAJOR_AXIS":"6925.381","REV_AT_EPOCH":"3774","PERIOD":"95.593","DECAY_DATE":null,"BSTAR":"0.00000960980000","NORAD_CAT_ID":"47776","CENTER_NAME":"EARTH","RCS_SIZE":"LARGE","REF_FRAME":"TEME"},{"MEAN_ANOMALY":"276.0066","LAUNCH_DATE":"2021-03-04","OBJECT_ID":"2021-017BH","GP_ID":"188468593","PERIAPSIS":"545.982","OBJECT_TYPE":"PAYLOAD","MEAN_MOTION":"15.06393030","TIME_SYSTEM":"UTC","MEAN_MOTION_DDOT":"0.0000000000000","FILE":"3191844","MEAN_ELEMENT_THEORY":"SGP4","ECCENTRICITY":"0.00018090","OBJECT_NAME":"STARLINK-2210","APOAPSIS":"548.488","INCLINATION":"53.0554","BSTAR":"0.00000533670000","DECAY_DATE":null,"PERIOD":"95.593","REF_FRAME":"TEME","RCS_SIZE":"LARGE","CENTER_NAME":"EARTH","NORAD_CAT_ID":"47777","TLE_LINE2":"2 47777  53.0554 158.2176 0001809  84.1129 276.0066 15.06393030 37804","EPHEMERIS_TYPE":"0","SITE":"AFETR","COUNTRY_CODE":"US","TLE_LINE1":"1 47777U 21017BH  21302.72888053 -.00000202  00000-0  53367-5 0  9996","ARG_OF_PERICENTER":"84.1129","MEAN_MOTION_DOT":"-0.00000202","ELEMENT_SET_NO":"999","SEMIMAJOR_AXIS":"6925.370","REV_AT_EPOCH":"3780","CLASSIFICATION_TYPE":"U","EPOCH":"2021-10-29T17:29:35.277792","RA_OF_ASC_NODE":"158.2176"},{"LAUNCH_DATE":"2021-03-04","OBJECT_ID":"2021-017BJ","MEAN_ANOMALY":"282.4080","MEAN_MOTION":"15.06401565","OBJECT_TYPE":"PAYLOAD","GP_ID":"188467347","PERIAPSIS":"545.820","MEAN_MOTION_DDOT":"0.0000000000000","TIME_SYSTEM":"UTC","FILE":"3191844","MEAN_ELEMENT_THEORY":"SGP4","ECCENTRICITY":"0.00020060","OBJECT_NAME":"STARLINK-2211","INCLINATION":"53.0558","APOAPSIS":"548.598","BSTAR":"0.00004541000000","PERIOD":"95.592","DECAY_DATE":null,"REF_FRAME":"TEME","NORAD_CAT_ID":"47778","CENTER_NAME":"EARTH","RCS_SIZE":"LARGE","EPHEMERIS_TYPE":"0","SITE":"AFETR","TLE_LINE2":"2 47778  53.0558 157.9361 0002006  77.7133 282.4080 15.06401565 37815","MEAN_MOTION_DOT":"0.00000395","ARG_OF_PERICENTER":"77.7133","COUNTRY_CODE":"US","TLE_LINE1":"1 47778U 21017BJ  21302.82839626  .00000395  00000-0  45410-4 0  9991","EPOCH":"2021-10-29T19:52:53.436864","CLASSIFICATION_TYPE":"U","REV_AT_EPOCH":"3781","SEMIMAJOR_AXIS":"6925.344","ELEMENT_SET_NO":"999","RA_OF_ASC_NODE":"157.9361"},{"MEAN_MOTION_DOT":"0.00001829","ARG_OF_PERICENTER":"74.8960","COUNTRY_CODE":"US","TLE_LINE1":"1 47779U 21017BK  21302.71044916  .00001829  00000-0  14163-3 0  9993","SITE":"AFETR","EPHEMERIS_TYPE":"0","TLE_LINE2":"2 47779  53.0535 158.2836 0001779  74.8960 285.2226 15.06400106 37806","RA_OF_ASC_NODE":"158.2836","CLASSIFICATION_TYPE":"U","EPOCH":"2021-10-29T17:03:02.807424","SEMIMAJOR_AXIS":"6925.348","ELEMENT_SET_NO":"999","REV_AT_EPOCH":"3780","PERIOD":"95.592","DECAY_DATE":null,"BSTAR":"0.00014163000000","NORAD_CAT_ID":"47779","CENTER_NAME":"EARTH","RCS_SIZE":"LARGE","REF_FRAME":"TEME","FILE":"3191844","MEAN_ELEMENT_THEORY":"SGP4","MEAN_MOTION_DDOT":"0.0000000000000","TIME_SYSTEM":"UTC","INCLINATION":"53.0535","APOAPSIS":"548.445","ECCENTRICITY":"0.00017790","OBJECT_NAME":"STARLINK-2212","MEAN_MOTION":"15.06400106","OBJECT_TYPE":"PAYLOAD","PERIAPSIS":"545.981","GP_ID":"188468093","LAUNCH_DATE":"2021-03-04","MEAN_ANOMALY":"285.2226","OBJECT_ID":"2021-017BK"},{"MEAN_ANOMALY":"284.1668","LAUNCH_DATE":"2021-03-04","OBJECT_ID":"2021-017BL","MEAN_MOTION":"15.06398518","GP_ID":"188468848","PERIAPSIS":"545.947","OBJECT_TYPE":"PAYLOAD","MEAN_MOTION_DDOT":"0.0000000000000","TIME_SYSTEM":"UTC","MEAN_ELEMENT_THEORY":"SGP4","FILE":"3191844","ECCENTRICITY":"0.00018350","OBJECT_NAME":"STARLINK-2213","INCLINATION":"53.0550","APOAPSIS":"548.489","BSTAR":"-0.00000348160000","PERIOD":"95.592","DECAY_DATE":null,"REF_FRAME":"TEME","CENTER_NAME":"EARTH","NORAD_CAT_ID":"47780","RCS_SIZE":"LARGE","SITE":"AFETR","EPHEMERIS_TYPE":"0","TLE_LINE2":"2 47780  53.0550 157.3854 0001835  75.9524 284.1668 15.06398518 37863","MEAN_MOTION_DOT":"-0.00000334","ARG_OF_PERICENTER":"75.9524","COUNTRY_CODE":"US","TLE_LINE1":"1 47780U 21017BL  21302.91223028 -.00000334  00000-0 -34816-5 0  9991","SEMIMAJOR_AXIS":"6925.353","REV_AT_EPOCH":"3786","ELEMENT_SET_NO":"999","EPOCH":"2021-10-29T21:53:36.696192","CLASSIFICATION_TYPE":"U","RA_OF_ASC_NODE":"157.3854"},{"TLE_LINE2":"2 47781  53.0552 157.4991 0001799  79.1677 280.9514 15.06398396 37816","EPHEMERIS_TYPE":"0","SITE":"AFETR","COUNTRY_CODE":"US","TLE_LINE1":"1 47781U 21017BM  21302.88737339  .00000397  00000-0  45535-4 0  9999","ARG_OF_PERICENTER":"79.1677","MEAN_MOTION_DOT":"0.00000397","EPOCH":"2021-10-29T21:17:49.060896","CLASSIFICATION_TYPE":"U","REV_AT_EPOCH":"3781","SEMIMAJOR_AXIS":"6925.353","ELEMENT_SET_NO":"999","RA_OF_ASC_NODE":"157.4991","BSTAR":"0.00004553500000","DECAY_DATE":null,"PERIOD":"95.592","REF_FRAME":"TEME","RCS_SIZE":"LARGE","NORAD_CAT_ID":"47781","CENTER_NAME":"EARTH","TIME_SYSTEM":"UTC","MEAN_MOTION_DDOT":"0.0000000000000","FILE":"3191844","MEAN_ELEMENT_THEORY":"SGP4","OBJECT_NAME":"STARLINK-2223","ECCENTRICITY":"0.00017990","APOAPSIS":"548.464","INCLINATION":"53.0552","OBJECT_ID":"2021-017BM","LAUNCH_DATE":"2021-03-04","MEAN_ANOMALY":"280.9514","OBJECT_TYPE":"PAYLOAD","PERIAPSIS":"545.973","GP_ID":"188469093","MEAN_MOTION":"15.06398396"},{"PERIOD":"95.592","DECAY_DATE":null,"BSTAR":"0.00014169000000","CENTER_NAME":"EARTH","NORAD_CAT_ID":"47787","RCS_SIZE":"LARGE","REF_FRAME":"TEME","ARG_OF_PERICENTER":"69.9739","MEAN_MOTION_DOT":"0.00001830","COUNTRY_CODE":"US","TLE_LINE1":"1 47787U 21018A   21302.83944886  .00001830  00000-0  14169-3 0  9999","SITE":"AFETR","EPHEMERIS_TYPE":"0","TLE_LINE2":"2 47787  53.0560 197.7188 0001977  69.9739 290.1463 15.06405308 36660","RA_OF_ASC_NODE":"197.7188","SEMIMAJOR_AXIS":"6925.332","REV_AT_EPOCH":"3666","ELEMENT_SET_NO":"999","CLASSIFICATION_TYPE":"U","EPOCH":"2021-10-29T20:08:48.381504","MEAN_MOTION":"15.06405308","PERIAPSIS":"545.828","GP_ID":"188467847","OBJECT_TYPE":"PAYLOAD","MEAN_ANOMALY":"290.1463","LAUNCH_DATE":"2021-03-11","OBJECT_ID":"2021-018A","FILE":"3191844","MEAN_ELEMENT_THEORY":"SGP4","MEAN_MOTION_DDOT":"0.0000000000000","TIME_SYSTEM":"UTC","INCLINATION":"53.0560","APOAPSIS":"548.566","ECCENTRICITY":"0.00019770","OBJECT_NAME":"STARLINK-2257"},{"DECAY_DATE":null,"PERIOD":"95.748","BSTAR":"-0.00001570500000","RCS_SIZE":"LARGE","CENTER_NAME":"EARTH","NORAD_CAT_ID":"47788","REF_FRAME":"TEME","TLE_LINE1":"1 47788U 21018B   21302.77958011 -.00000494  00000-0 -15705-4 0  9993","COUNTRY_CODE":"US","MEAN_MOTION_DOT":"-0.00000494","ARG_OF_PERICENTER":"78.1119","TLE_LINE2":"2 47788  53.0568 172.1059 0001770  78.1119 282.0067 15.03949992 37039","SITE":"AFETR","EPHEMERIS_TYPE":"0","RA_OF_ASC_NODE":"172.1059","SEMIMAJOR_AXIS":"6932.868","REV_AT_EPOCH":"3703","ELEMENT_SET_NO":"999","EPOCH":"2021-10-29T18:42:35.721504","CLASSIFICATION_TYPE":"U","PERIAPSIS":"553.506","GP_ID":"188467594","OBJECT_TYPE":"PAYLOAD","MEAN_MOTION":"15.03949992","MEAN_ANOMALY":"282.0067","LAUNCH_DATE":"2021-03-11","OBJECT_ID":"2021-018B","MEAN_ELEMENT_THEORY":"SGP4","FILE":"3191844","TIME_SYSTEM":"UTC","MEAN_MOTION_DDOT":"0.0000000000000","APOAPSIS":"555.960","INCLINATION":"53.0568","OBJECT_NAME":"STARLINK-2314","ECCENTRICITY":"0.00017700"},{"INCLINATION":"53.0569","APOAPSIS":"548.494","ECCENTRICITY":"0.00018230","OBJECT_NAME":"STARLINK-2315","MEAN_ELEMENT_THEORY":"SGP4","FILE":"3191844","MEAN_MOTION_DDOT":"0.0000000000000","TIME_SYSTEM":"UTC","MEAN_MOTION":"15.06394242","OBJECT_TYPE":"PAYLOAD","GP_ID":"188468349","PERIAPSIS":"545.969","MEAN_ANOMALY":"279.7910","LAUNCH_DATE":"2021-03-11","OBJECT_ID":"2021-018C","RA_OF_ASC_NODE":"177.4330","CLASSIFICATION_TYPE":"U","EPOCH":"2021-10-29T21:36:23.347008","SEMIMAJOR_AXIS":"6925.366","ELEMENT_SET_NO":"999","REV_AT_EPOCH":"3696","ARG_OF_PERICENTER":"80.3285","MEAN_MOTION_DOT":"0.00001024","COUNTRY_CODE":"US","TLE_LINE1":"1 47789U 21018C   21302.90027022  .00001024  00000-0  87625-4 0  9996","EPHEMERIS_TYPE":"0","SITE":"AFETR","TLE_LINE2":"2 47789  53.0569 177.4330 0001823  80.3285 279.7910 15.06394242 36965","NORAD_CAT_ID":"47789","CENTER_NAME":"EARTH","RCS_SIZE":"MEDIUM","REF_FRAME":"TEME","PERIOD":"95.593","DECAY_DATE":null,"BSTAR":"0.00008762500000"}];
